{"fetched_at":"2026-03-29T16:36:15Z","count":15609,"tles":[{"name":"COSMOS 2550","line1":"1 48865U 21056A   26087.49272868 -.00000186  00000+0  18968-6 0  9997","line2":"2 48865  67.1421 344.0047 0008440 269.5686  90.4502 15.33828274266348","category":"Other"}]}